{
  "type": "FeatureCollection",
  "features": [
    {
      "type": "Feature",
      "properties": {
        "norad_id": 66425,
        "name": "STARLINK-35555",
        "group": "last-30-days",
        "lat": -23.427792902100116,
        "lon": 52.45098628033904,
        "alt_km": 445.302585266345,
        "timestamp": "2025-12-07T03:52:31.202656+00:00",
        "meta_object_name": "STARLINK-35555",
        "meta_object_id": "2025-259D",
        "meta_epoch": "2025-12-06T14:00:01.999872",
        "meta_mean_motion": 15.40631909,
        "meta_eccentricity": 0.0001632,
        "meta_inclination": 43.0003,
        "meta_ra_of_asc_node": 83.4932,
        "meta_arg_of_pericenter": 284.8298,
        "meta_mean_anomaly": 69.2577,
        "meta_ephemeris_type": 0,
        "meta_classification_type": "U",
        "meta_norad_cat_id": 66425,
        "meta_element_set_no": 999,
        "meta_rev_at_epoch": 529,
        "meta_bstar": 0.0019729098,
        "meta_mean_motion_dot": 0.00082822,
        "meta_mean_motion_ddot": 0,
        "tle_line1": "1 66425U 25259D   25340.58335648  .00082822  00000+0  19729-2 0  9993",
        "tle_line2": "2 66425  43.0003  83.4932 0001632 284.8298  69.2577 15.40631909  5297"
      },
      "geometry": {
        "type": "Point",
        "coordinates": [
          52.45098628033904,
          -23.427792902100116
        ]
      }
    },
    {
      "type": "Feature",
      "properties": {
        "norad_id": 66426,
        "name": "STARLINK-35589",
        "group": "last-30-days",
        "lat": -15.61780971696942,
        "lon": 62.675546936731905,
        "alt_km": 444.9964056326626,
        "timestamp": "2025-12-07T03:52:31.202666+00:00",
        "meta_object_name": "STARLINK-35589",
        "meta_object_id": "2025-259E",
        "meta_epoch": "2025-12-06T14:00:01.999872",
        "meta_mean_motion": 15.4061884,
        "meta_eccentricity": 0.00013117,
        "meta_inclination": 43.0005,
        "meta_ra_of_asc_node": 83.4639,
        "meta_arg_of_pericenter": 277.1515,
        "meta_mean_anomaly": 89.3657,
        "meta_ephemeris_type": 0,
        "meta_classification_type": "U",
        "meta_norad_cat_id": 66426,
        "meta_element_set_no": 999,
        "meta_rev_at_epoch": 529,
        "meta_bstar": 0.0023913073,
        "meta_mean_motion_dot": 0.00100642,
        "meta_mean_motion_ddot": 0,
        "tle_line1": "1 66426U 25259E   25340.58335648  .00100642  00000+0  23913-2 0  9995",
        "tle_line2": "2 66426  43.0005  83.4639 0001311 277.1515  89.3657 15.40618840  5296"
      },
      "geometry": {
        "type": "Point",
        "coordinates": [
          62.675546936731905,
          -15.61780971696942
        ]
      }
    },
    {
      "type": "Feature",
      "properties": {
        "norad_id": 66427,
        "name": "STARLINK-35611",
        "group": "last-30-days",
        "lat": -7.4275771776638475,
        "lon": 72.05933200391542,
        "alt_km": 443.7126220612754,
        "timestamp": "2025-12-07T03:52:31.202677+00:00",
        "meta_object_name": "STARLINK-35611",
        "meta_object_id": "2025-259F",
        "meta_epoch": "2025-12-06T14:00:01.999872",
        "meta_mean_motion": 15.40581762,
        "meta_eccentricity": 0.0002004,
        "meta_inclination": 43.0004,
        "meta_ra_of_asc_node": 83.4332,
        "meta_arg_of_pericenter": 306.0138,
        "meta_mean_anomaly": 72.9203,
        "meta_ephemeris_type": 0,
        "meta_classification_type": "U",
        "meta_norad_cat_id": 66427,
        "meta_element_set_no": 999,
        "meta_rev_at_epoch": 529,
        "meta_bstar": 0.0022234866,
        "meta_mean_motion_dot": 0.00093355,
        "meta_mean_motion_ddot": 0,
        "tle_line1": "1 66427U 25259F   25340.58335648  .00093355  00000+0  22235-2 0  9994",
        "tle_line2": "2 66427  43.0004  83.4332 0002004 306.0138  72.9203 15.40581762  5296"
      },
      "geometry": {
        "type": "Point",
        "coordinates": [
          72.05933200391542,
          -7.4275771776638475
        ]
      }
    },
    {
      "type": "Feature",
      "properties": {
        "norad_id": 66428,
        "name": "STARLINK-35610",
        "group": "last-30-days",
        "lat": 0.9550894482639706,
        "lon": 81.09614535260484,
        "alt_km": 445.45757646746733,
        "timestamp": "2025-12-07T03:52:31.202687+00:00",
        "meta_object_name": "STARLINK-35610",
        "meta_object_id": "2025-259G",
        "meta_epoch": "2025-12-06T14:00:01.999872",
        "meta_mean_motion": 15.41333146,
        "meta_eccentricity": 0.00018948,
        "meta_inclination": 43.0005,
        "meta_ra_of_asc_node": 83.4034,
        "meta_arg_of_pericenter": 265.9792,
        "meta_mean_anomaly": 125.0797,
        "meta_ephemeris_type": 0,
        "meta_classification_type": "U",
        "meta_norad_cat_id": 66428,
        "meta_element_set_no": 999,
        "meta_rev_at_epoch": 529,
        "meta_bstar": -0.024797874,
        "meta_mean_motion_dot": -0.00966725,
        "meta_mean_motion_ddot": 0,
        "tle_line1": "1 66428U 25259G   25340.58335648 -.00966725  00000+0 -24798-1 0  9992",
        "tle_line2": "2 66428  43.0005  83.4034 0001894 265.9792 125.0797 15.41333146  5292"
      },
      "geometry": {
        "type": "Point",
        "coordinates": [
          81.09614535260484,
          0.9550894482639706
        ]
      }
    },
    {
      "type": "Feature",
      "properties": {
        "norad_id": 66429,
        "name": "STARLINK-35533",
        "group": "last-30-days",
        "lat": 9.545029934362129,
        "lon": 90.43549673296923,
        "alt_km": 443.5576603416948,
        "timestamp": "2025-12-07T03:52:31.202698+00:00",
        "meta_object_name": "STARLINK-35533",
        "meta_object_id": "2025-259H",
        "meta_epoch": "2025-12-06T14:00:01.999872",
        "meta_mean_motion": 15.43255721,
        "meta_eccentricity": 0.00011822,
        "meta_inclination": 43.0007,
        "meta_ra_of_asc_node": 83.3772,
        "meta_arg_of_pericenter": 287.0124,
        "meta_mean_anomaly": 114.5826,
        "meta_ephemeris_type": 0,
        "meta_classification_type": "U",
        "meta_norad_cat_id": 66429,
        "meta_element_set_no": 999,
        "meta_rev_at_epoch": 529,
        "meta_bstar": -0.058976296,
        "meta_mean_motion_dot": -0.02387464,
        "meta_mean_motion_ddot": 0,
        "tle_line1": "1 66429U 25259H   25340.58335648 -.02387464  00000+0 -58976-1 0  9997",
        "tle_line2": "2 66429  43.0007  83.3772 0001182 287.0124 114.5826 15.43255721  5297"
      },
      "geometry": {
        "type": "Point",
        "coordinates": [
          90.43549673296923,
          9.545029934362129
        ]
      }
    },
    {
      "type": "Feature",
      "properties": {
        "norad_id": 66430,
        "name": "STARLINK-35470",
        "group": "last-30-days",
        "lat": 17.464679907598786,
        "lon": 99.74307646054,
        "alt_km": 438.26332036823896,
        "timestamp": "2025-12-07T03:52:31.202708+00:00",
        "meta_object_name": "STARLINK-35470",
        "meta_object_id": "2025-259J",
        "meta_epoch": "2025-12-06T14:00:01.999872",
        "meta_mean_motion": 15.44348002,
        "meta_eccentricity": 0.00014285,
        "meta_inclination": 43.0009,
        "meta_ra_of_asc_node": 83.3551,
        "meta_arg_of_pericenter": 283.7154,
        "meta_mean_anomaly": 127.1977,
        "meta_ephemeris_type": 0,
        "meta_classification_type": "U",
        "meta_norad_cat_id": 66430,
        "meta_element_set_no": 999,
        "meta_rev_at_epoch": 529,
        "meta_bstar": -0.04874752,
        "meta_mean_motion_dot": -0.02046589,
        "meta_mean_motion_ddot": 0,
        "tle_line1": "1 66430U 25259J   25340.58335648 -.02046589  00000+0 -48748-1 0  9995",
        "tle_line2": "2 66430  43.0009  83.3551 0001428 283.7154 127.1977 15.44348002  5298"
      },
      "geometry": {
        "type": "Point",
        "coordinates": [
          99.74307646054,
          17.464679907598786
        ]
      }
    },
    {
      "type": "Feature",
      "properties": {
        "norad_id": 66431,
        "name": "STARLINK-35439",
        "group": "last-30-days",
        "lat": 31.4519158128291,
        "lon": 120.97017297498863,
        "alt_km": 420.11428411523957,
        "timestamp": "2025-12-07T03:52:31.202718+00:00",
        "meta_object_name": "STARLINK-35439",
        "meta_object_id": "2025-259K",
        "meta_epoch": "2025-12-06T13:43:13.793952",
        "meta_mean_motion": 15.47886848,
        "meta_eccentricity": 0.00016368,
        "meta_inclination": 43.0003,
        "meta_ra_of_asc_node": 83.3817,
        "meta_arg_of_pericenter": 275.1836,
        "meta_mean_anomaly": 84.8836,
        "meta_ephemeris_type": 0,
        "meta_classification_type": "U",
        "meta_norad_cat_id": 66431,
        "meta_element_set_no": 999,
        "meta_rev_at_epoch": 521,
        "meta_bstar": -0.008003332,
        "meta_mean_motion_dot": -0.00405794,
        "meta_mean_motion_ddot": 0,
        "tle_line1": "1 66431U 25259K   25340.57168743 -.00405794  00000+0 -80033-2 0  9994",
        "tle_line2": "2 66431  43.0003  83.3817 0001636 275.1836  84.8836 15.47886848  5214"
      },
      "geometry": {
        "type": "Point",
        "coordinates": [
          120.97017297498863,
          31.4519158128291
        ]
      }
    }
  ]
}